[{"OBJECT_NAME":"SDA_1673","OBJECT_ID":"2025-230K","EPOCH":"2026-03-09T17:15:35.607168","MEAN_MOTION":13.85421507,"ECCENTRICITY":0.00025222,"INCLINATION":81.3013,"RA_OF_ASC_NODE":303.8171,"ARG_OF_PERICENTER":101.7636,"MEAN_ANOMALY":258.3805,"EPHEMERIS_TYPE":0,"CLASSIFICATION_TYPE":"U","NORAD_CAT_ID":65983,"ELEMENT_SET_NO":999,"REV_AT_EPOCH":2005,"BSTAR":-0.017090367,"MEAN_MOTION_DOT":-0.00019388,"MEAN_MOTION_DDOT":0},{"OBJECT_NAME":"COSMOS 970 DEB","OBJECT_ID":"1977-121CD","EPOCH":"2026-03-08T14:04:11.866944","MEAN_MOTION":13.69884084,"ECCENTRICITY":0.01221833,"INCLINATION":65.8594,"RA_OF_ASC_NODE":16.8936,"ARG_OF_PERICENTER":154.0481,"MEAN_ANOMALY":23.887,"EPHEMERIS_TYPE":0,"CLASSIFICATION_TYPE":"U","NORAD_CAT_ID":64968,"ELEMENT_SET_NO":999,"REV_AT_EPOCH":61461,"BSTAR":0.00025627013,"MEAN_MOTION_DOT":1.58e-6,"MEAN_MOTION_DDOT":0}]
